NORAD_CAT_ID,OBJECT_NAME,OBJECT_TYPE,EPOCH,MEAN_MOTION,ECCENTRICITY,INCLINATION,RA_OF_ASC_NODE,ARG_OF_PERICENTER,MEAN_ANOMALY,BSTAR,MEAN_MOTION_DOT,MEAN_MOTION_DDOT,TLE_LINE0,TLE_LINE1,TLE_LINE2,SEMIMAJOR_AXIS,PERIOD,APOGEE,PERIGEE,DECAYED
54788.0,STARLINK-5399,PAYLOAD,2023-08-05 12:54:22,15.0885966,0.0001311,53.2162,320.9223,83.6895,276.4246,0.0010709,0.00016806,0.0,0 STARLINK-5399,1 54788U 22175AG  23217.53776041  .00016806  00000-0  10709-2 0  9997,2 54788  53.2162 320.9223 0001311  83.6895 276.4246 15.08859660 34982,6917.82,95.436,540.592,538.778,0.0
54788.0,STARLINK-5399,PAYLOAD,2023-08-06 00:02:04,15.08847717,0.0001,53.2166,318.8385,103.6646,256.4458,0.00062886,9.737e-05,0.0,0 STARLINK-5399,1 54788U 22175AG  23218.00144189  .00009737  00000-0  62886-3 0  9991,2 54788  53.2166 318.8385 0001000 103.6646 256.4458 15.08847717 35055,6917.857,95.437,540.414,539.03,0.0
54788.0,STARLINK-5399,PAYLOAD,2023-08-06 11:09:47,15.08817062,7.5e-05,53.2162,316.759,62.8181,297.2887,-0.00046624,-7.695e-05,0.0,0 STARLINK-5399,1 54788U 22175AG  23218.46512763 -.00007695  00000-0 -46624-3 0  9993,2 54788  53.2162 316.7590 0000750  62.8181 297.2887 15.08817062 35124,6917.951,95.439,540.334,539.297,0.0
54788.0,STARLINK-5399,PAYLOAD,2023-08-06 23:52:52,15.08827685,0.0001094,53.2155,314.3797,66.744,293.3667,0.0008877,0.00013863,0.0,0 STARLINK-5399,1 54788U 22175AG  23218.99505588  .00013863  00000-0  88770-3 0  9998,2 54788  53.2155 314.3797 0001094  66.7440 293.3667 15.08827685 35206,6917.918,95.438,540.54,539.026,0.0
54788.0,STARLINK-5399,PAYLOAD,2023-08-07 17:22:06,15.08864474,0.0001202,53.2152,311.1089,57.6677,302.4432,0.0014441,0.00022785,0.0,0 STARLINK-5399,1 54788U 22175AG  23219.72369147  .00022785  00000-0  14441-2 0  9995,2 54788  53.2152 311.1089 0001202  57.6677 302.4432 15.08864474 35315,6917.806,95.436,540.502,538.839,0.0
54788.0,STARLINK-5399,PAYLOAD,2023-08-07 23:43:39,15.08849949,7.57e-05,53.2174,309.9187,62.6135,297.4934,0.0004161,6.342e-05,0.0,0 STARLINK-5399,1 54788U 22175AG  23219.98865040  .00006342  00000-0  41610-3 0  9996,2 54788  53.2174 309.9187 0000757  62.6135 297.4934 15.08849949 35356,6917.85,95.437,540.239,539.191,0.0
54788.0,STARLINK-5399,PAYLOAD,2023-08-09 09:06:45,15.08838395,9.84e-05,53.2159,303.6739,62.7517,297.3575,0.00012352,1.679e-05,0.0,0 STARLINK-5399,1 54788U 22175AG  23221.37969163  .00001679  00000-0  12352-3 0  9992,2 54788  53.2159 303.6739 0000984  62.7517 297.3575 15.08838395 35566,6917.885,95.438,540.431,539.07,0.0
54788.0,STARLINK-5399,PAYLOAD,2023-08-10 16:54:27,15.08861196,0.000109,53.2161,297.727,71.0201,289.0909,0.00080968,0.00012629,0.0,0 STARLINK-5399,1 54788U 22175AG  23222.70448847  .00012629  00000-0  80968-3 0  9996,2 54788  53.2161 297.7270 0001090  71.0201 289.0909 15.08861196 35760,6917.816,95.436,540.435,538.927,0.0
54788.0,STARLINK-5399,PAYLOAD,2023-08-10 21:40:37,15.08838735,0.000118,53.2163,296.834,75.6528,284.4595,-0.00010025,-1.883e-05,0.0,0 STARLINK-5399,1 54788U 22175AG  23222.90321192 -.00001883  00000-0 -10025-3 0  9990,2 54788  53.2163 296.8340 0001180  75.6528 284.4595 15.08838735 35798,6917.884,95.438,540.566,538.933,0.0
54788.0,STARLINK-5399,PAYLOAD,2023-08-11 15:09:51,15.08847628,9.78e-05,53.2156,293.5644,82.5474,277.5629,0.00044327,6.775e-05,0.0,0 STARLINK-5399,1 54788U 22175AG  23223.63185026  .00006775  00000-0  44327-3 0  9990,2 54788  53.2156 293.5644 0000978  82.5474 277.5629 15.08847628 35907,6917.857,95.437,540.399,539.046,0.0
54788.0,STARLINK-5399,PAYLOAD,2023-08-11 21:31:24,15.08837299,0.0001245,53.2159,292.3742,81.5462,278.5672,0.00020876,3.036e-05,0.0,0 STARLINK-5399,1 54788U 22175AG  23223.89681373  .00003036  00000-0  20876-3 0  9994,2 54788  53.2159 292.3742 0001245  81.5462 278.5672 15.08837299 35946,6917.889,95.438,540.615,538.892,0.0
54788.0,STARLINK-5399,PAYLOAD,2023-08-13 03:43:44,15.08840943,0.0001015,53.215,286.7257,83.992,276.1188,0.00019694,2.848e-05,0.0,0 STARLINK-5399,1 54788U 22175AG  23225.15537450  .00002848  00000-0  19694-3 0  9997,2 54788  53.2150 286.7257 0001015  83.9920 276.1188 15.08840943 36133,6917.878,95.437,540.445,539.04,0.0
54788.0,STARLINK-5399,PAYLOAD,2023-08-14 09:56:04,15.08840129,0.0001353,53.2141,281.0754,81.916,278.1986,0.00019924,2.884e-05,0.0,0 STARLINK-5399,1 54788U 22175AG  23226.41393723  .00002884  00000-0  19924-3 0  9996,2 54788  53.2141 281.0754 0001353  81.9160 278.1986 15.08840129 36327,6917.88,95.438,540.681,538.809,0.0
54788.0,STARLINK-5399,PAYLOAD,2023-08-15 14:33:00,15.0885467,0.0001245,53.2151,275.7214,90.3751,269.7384,0.0001517,2.128e-05,0.0,0 STARLINK-5399,1 54788U 22175AG  23227.60625067  .00002128  00000-0  15170-3 0  9997,2 54788  53.2151 275.7214 0001245  90.3751 269.7384 15.08854670 36503,6917.836,95.437,540.562,538.839,0.0
54788.0,STARLINK-5399,PAYLOAD,2023-08-15 20:54:33,15.08844137,0.0001264,53.216,274.5323,78.4745,281.6389,0.00024305,3.583e-05,0.0,0 STARLINK-5399,1 54788U 22175AG  23227.87121679  .00003583  00000-0  24305-3 0  9992,2 54788  53.2160 274.5323 0001264  78.4745 281.6389 15.08844137 36541,6917.868,95.437,540.607,538.858,0.0
54788.0,STARLINK-5399,PAYLOAD,2023-08-17 09:28:25,15.08842528,0.0001281,53.2151,267.6918,97.569,262.5447,6.5805e-05,7.6e-06,0.0,0 STARLINK-5399,1 54788U 22175AG  23229.39473607  .00000760  00000-0  65805-4 0  9997,2 54788  53.2151 267.6918 0001281  97.5690 262.5447 15.08842528 36774,6917.873,95.437,540.624,538.851,0.0
54788.0,STARLINK-5399,PAYLOAD,2023-08-18 10:54:35,15.08841278,0.0001262,53.215,262.9354,95.0454,265.0683,6.9017e-05,8.11e-06,0.0,0 STARLINK-5399,1 54788U 22175AG  23230.45457696  .00000811  00000-0  69017-4 0  9992,2 54788  53.2150 262.9354 0001262  95.0454 265.0683 15.08841278 36934,6917.876,95.437,540.615,538.868,0.0
54788.0,STARLINK-5399,PAYLOAD,2023-08-19 12:20:45,15.08840887,0.0001265,53.2146,258.1768,100.0615,260.052,5.3529e-05,5.64e-06,0.0,0 STARLINK-5399,1 54788U 22175AG  23231.51441795  .00000564  00000-0  53529-4 0  9999,2 54788  53.2146 258.1768 0001265 100.0615 260.0520 15.08840887 37092,6917.878,95.437,540.618,538.868,0.0
54788.0,STARLINK-5399,PAYLOAD,2023-08-20 09:00:47,15.08835864,0.0001251,53.2157,254.312,92.7826,267.3309,5.9754e-05,6.63e-06,0.0,0 STARLINK-5399,1 54788U 22175AG  23232.37554652  .00000663  00000-0  59754-4 0  9997,2 54788  53.2157 254.3120 0001251  92.7826 267.3309 15.08835864 37229,6917.893,95.438,540.623,538.893,0.0
54788.0,STARLINK-5399,PAYLOAD,2023-08-21 08:51:33,15.08848351,0.0001257,53.2152,249.851,89.5687,270.5449,0.00013318,1.833e-05,0.0,0 STARLINK-5399,1 54788U 22175AG  23233.36913770  .00001833  00000-0  13318-3 0  9992,2 54788  53.2152 249.8510 0001257  89.5687 270.5449 15.08848351 37373,6917.855,95.437,540.589,538.85,0.0
54788.0,STARLINK-5399,PAYLOAD,2023-08-22 07:06:58,15.08835362,0.0001401,53.2149,245.6894,78.4938,281.6211,6.2556e-05,7.08e-06,0.0,0 STARLINK-5399,1 54788U 22175AG  23234.29651001  .00000708  00000-0  62556-4 0  9990,2 54788  53.2149 245.6894 0001401  78.4938 281.6211 15.08835362 37519,6917.895,95.438,540.729,538.79,0.0
54788.0,STARLINK-5399,PAYLOAD,2023-08-23 10:08:30,15.08854303,0.0001358,53.2152,240.6293,94.0514,266.0634,3.1809e-05,2.19e-06,0.0,0 STARLINK-5399,1 54788U 22175AG  23235.42257596  .00000219  00000-0  31809-4 0  9991,2 54788  53.2152 240.6293 0001358  94.0514 266.0634 15.08854303 37686,6917.837,95.437,540.641,538.762,0.0
54788.0,STARLINK-5399,PAYLOAD,2023-08-24 09:59:18,15.08838993,0.0001536,53.2161,236.1717,96.6147,263.502,6.583e-05,7.6e-06,0.0,0 STARLINK-5399,1 54788U 22175AG  23236.41618535  .00000760  00000-0  65830-4 0  9997,2 54788  53.2161 236.1717 0001536  96.6147 263.5020 15.08838993 39999,6917.883,95.438,540.811,538.686,0.0
54788.0,STARLINK-5399,PAYLOAD,2023-08-25 01:53:09,15.08842091,0.0001533,53.216,233.1981,96.5868,263.5298,5.3414e-07,-2.8e-06,0.0,0 STARLINK-5399,1 54788U 22175AG  23237.07858535 -.00000280  00000-0  53414-6 0  9991,2 54788  53.2160 233.1981 0001533  96.5868 263.5298 15.08842091 37937,6917.874,95.437,540.8,538.678,0.0
54788.0,STARLINK-5399,PAYLOAD,2023-08-25 09:50:05,15.08845573,0.0001501,53.2161,231.7114,96.4007,263.7156,2.2264e-05,6.6e-07,0.0,0 STARLINK-5399,1 54788U 22175AG  23237.40978130  .00000066  00000-0  22264-4 0  9990,2 54788  53.2161 231.7114 0001501  96.4007 263.7156 15.08845573 40149,6917.863,95.437,540.767,538.69,0.0
54788.0,STARLINK-5399,PAYLOAD,2023-08-26 01:43:57,15.0883148,0.0001493,53.2162,228.7375,98.4519,261.6642,1.4438e-05,-5.8e-07,0.0,0 STARLINK-5399,1 54788U 22175AG  23238.07219152 -.00000058  00000-0  14438-4 0  9992,2 54788  53.2162 228.7375 0001493  98.4519 261.6642 15.08831480 38084,6917.906,95.438,540.804,538.739,0.0
54788.0,STARLINK-5399,PAYLOAD,2023-08-26 08:05:29,15.08835265,0.0001422,53.2162,227.5481,94.3268,265.7887,4.254e-05,3.89e-06,0.0,0 STARLINK-5399,1 54788U 22175AG  23238.33714931  .00000389  00000-0  42540-4 0  9997,2 54788  53.2162 227.5481 0001422  94.3268 265.7887 15.08835265 40283,6917.895,95.438,540.744,538.776,0.0
54788.0,STARLINK-5399,PAYLOAD,2023-08-27 07:56:16,15.08850488,0.0001742,53.2163,223.0873,104.3771,255.7415,-4.3185e-08,-2.89e-06,0.0,0 STARLINK-5399,1 54788U 22175AG  23239.33074237 -.00000289  00000-0 -43185-7 0  9996,2 54788  53.2163 223.0873 0001742 104.3771 255.7415 15.08850488 38272,6917.848,95.437,540.918,538.508,0.0
54788.0,STARLINK-5399,PAYLOAD,2023-08-27 22:14:45,15.08837477,0.0001659,53.2162,220.4123,89.6325,270.4857,3.7806e-05,3.14e-06,0.0,0 STARLINK-5399,1 54788U 22175AG  23239.92691038  .00000314  00000-0  37806-4 0  9992,2 54788  53.2162 220.4123 0001659  89.6325 270.4857 15.08837477 40525,6917.888,95.438,540.901,538.605,0.0
54788.0,STARLINK-5399,PAYLOAD,2023-08-28 15:43:59,15.08836385,0.0001476,53.2162,217.1385,89.8161,270.3,3.4973e-05,2.69e-06,0.0,0 STARLINK-5399,1 54788U 22175AG  23240.65555308  .00000269  00000-0  34973-4 0  9994,2 54788  53.2162 217.1385 0001476  89.8161 270.3000 15.08836385 40633,6917.891,95.438,540.778,538.735,0.0
